[
    {
        "OBJECT_NAME": "SL-14 R/B",
        "OBJECT_ID": "1987-024B",
        "EPOCH": "2026-05-16T17:00:03.690720",
        "MEAN_MOTION": 14.86190623,
        "ECCENTRICITY": 0.001925,
        "INCLINATION": 82.5302,
        "RA_OF_ASC_NODE": 28.8365,
        "ARG_OF_PERICENTER": 39.3903,
        "MEAN_ANOMALY": 320.8709,
        "EPHEMERIS_TYPE": 0,
        "CLASSIFICATION_TYPE": "U",
        "NORAD_CAT_ID": 17567,
        "ELEMENT_SET_NO": 999,
        "REV_AT_EPOCH": 9823,
        "BSTAR": 2.9654e-05,
        "MEAN_MOTION_DOT": 2.86e-06,
        "MEAN_MOTION_DDOT": 0
    },
    {
        "OBJECT_NAME": "COSMOS 1833",
        "OBJECT_ID": "1987-027A",
        "EPOCH": "2026-05-16T19:39:20.583072",
        "MEAN_MOTION": 14.13032279,
        "ECCENTRICITY": 0.0022386,
        "INCLINATION": 70.9143,
        "RA_OF_ASC_NODE": 182.8078,
        "ARG_OF_PERICENTER": 107.1633,
        "MEAN_ANOMALY": 253.1942,
        "EPHEMERIS_TYPE": 0,
        "CLASSIFICATION_TYPE": "U",
        "NORAD_CAT_ID": 17589,
        "ELEMENT_SET_NO": 999,
        "REV_AT_EPOCH": 1994,
        "BSTAR": 6.012e-05,
        "MEAN_MOTION_DOT": 6.5e-07,
        "MEAN_MOTION_DDOT": 0
    },
    {
        "OBJECT_NAME": "SL-16 R/B",
        "OBJECT_ID": "1987-027B",
        "EPOCH": "2026-05-16T17:39:13.076064",
        "MEAN_MOTION": 14.17170412,
        "ECCENTRICITY": 0.0004887,
        "INCLINATION": 70.9992,
        "RA_OF_ASC_NODE": 133.1051,
        "ARG_OF_PERICENTER": 351.6079,
        "MEAN_ANOMALY": 8.4962,
        "EPHEMERIS_TYPE": 0,
        "CLASSIFICATION_TYPE": "U",
        "NORAD_CAT_ID": 17590,
        "ELEMENT_SET_NO": 999,
        "REV_AT_EPOCH": 2498,
        "BSTAR": 3.0125e-05,
        "MEAN_MOTION_DOT": 1.3e-07,
        "MEAN_MOTION_DDOT": 0
    },
    {
        "OBJECT_NAME": "SL-14 R/B",
        "OBJECT_ID": "1987-038B",
        "EPOCH": "2026-05-16T17:42:59.749056",
        "MEAN_MOTION": 14.85424332,
        "ECCENTRICITY": 0.0017875,
        "INCLINATION": 82.5026,
        "RA_OF_ASC_NODE": 232.6918,
        "ARG_OF_PERICENTER": 302.0659,
        "MEAN_ANOMALY": 57.8821,
        "EPHEMERIS_TYPE": 0,
        "CLASSIFICATION_TYPE": "U",
        "NORAD_CAT_ID": 17912,
        "ELEMENT_SET_NO": 999,
        "REV_AT_EPOCH": 8933,
        "BSTAR": 2.5933e-05,
        "MEAN_MOTION_DOT": 2.48e-06,
        "MEAN_MOTION_DDOT": 0
    },
    {
        "OBJECT_NAME": "COSMOS 1844",
        "OBJECT_ID": "1987-041A",
        "EPOCH": "2026-05-16T17:02:39.405984",
        "MEAN_MOTION": 14.14561038,
        "ECCENTRICITY": 0.0032852,
        "INCLINATION": 70.8991,
        "RA_OF_ASC_NODE": 250.6991,
        "ARG_OF_PERICENTER": 279.549,
        "MEAN_ANOMALY": 80.192,
        "EPHEMERIS_TYPE": 0,
        "CLASSIFICATION_TYPE": "U",
        "NORAD_CAT_ID": 17973,
        "ELEMENT_SET_NO": 999,
        "REV_AT_EPOCH": 1320,
        "BSTAR": 0.00017967,
        "MEAN_MOTION_DOT": 2.98e-06,
        "MEAN_MOTION_DDOT": 0
    },
    {
        "OBJECT_NAME": "SL-14 R/B",
        "OBJECT_ID": "1987-055B",
        "EPOCH": "2026-05-16T20:06:40.366080",
        "MEAN_MOTION": 14.85684674,
        "ECCENTRICITY": 0.0021521,
        "INCLINATION": 82.4974,
        "RA_OF_ASC_NODE": 284.783,
        "ARG_OF_PERICENTER": 144.8905,
        "MEAN_ANOMALY": 215.3734,
        "EPHEMERIS_TYPE": 0,
        "CLASSIFICATION_TYPE": "U",
        "NORAD_CAT_ID": 18153,
        "ELEMENT_SET_NO": 999,
        "REV_AT_EPOCH": 8005,
        "BSTAR": 2.8432e-05,
        "MEAN_MOTION_DOT": 2.72e-06,
        "MEAN_MOTION_DDOT": 0
    },
    {
        "OBJECT_NAME": "COSMOS 1867",
        "OBJECT_ID": "1987-060A",
        "EPOCH": "2026-05-16T16:41:54.303360",
        "MEAN_MOTION": 14.31512071,
        "ECCENTRICITY": 0.0015856,
        "INCLINATION": 65.0089,
        "RA_OF_ASC_NODE": 116.2509,
        "ARG_OF_PERICENTER": 281.6935,
        "MEAN_ANOMALY": 78.237,
        "EPHEMERIS_TYPE": 0,
        "CLASSIFICATION_TYPE": "U",
        "NORAD_CAT_ID": 18187,
        "ELEMENT_SET_NO": 999,
        "REV_AT_EPOCH": 2967,
        "BSTAR": 8.9043e-06,
        "MEAN_MOTION_DOT": -7.7e-07,
        "MEAN_MOTION_DDOT": 0
    },
    {
        "OBJECT_NAME": "SL-14 R/B",
        "OBJECT_ID": "1988-001B",
        "EPOCH": "2026-05-16T10:24:35.995680",
        "MEAN_MOTION": 14.85583763,
        "ECCENTRICITY": 0.0018519,
        "INCLINATION": 82.511,
        "RA_OF_ASC_NODE": 131.6478,
        "ARG_OF_PERICENTER": 19.3914,
        "MEAN_ANOMALY": 340.8003,
        "EPHEMERIS_TYPE": 0,
        "CLASSIFICATION_TYPE": "U",
        "NORAD_CAT_ID": 18749,
        "ELEMENT_SET_NO": 999,
        "REV_AT_EPOCH": 5208,
        "BSTAR": 2.8463e-05,
        "MEAN_MOTION_DOT": 2.71e-06,
        "MEAN_MOTION_DDOT": 0
    },
    {
        "OBJECT_NAME": "COSMOS 1933",
        "OBJECT_ID": "1988-020A",
        "EPOCH": "2026-05-16T14:34:16.449312",
        "MEAN_MOTION": 15.18512316,
        "ECCENTRICITY": 0.0003172,
        "INCLINATION": 82.5136,
        "RA_OF_ASC_NODE": 183.7027,
        "ARG_OF_PERICENTER": 347.7604,
        "MEAN_ANOMALY": 12.3552,
        "EPHEMERIS_TYPE": 0,
        "CLASSIFICATION_TYPE": "U",
        "NORAD_CAT_ID": 18958,
        "ELEMENT_SET_NO": 999,
        "REV_AT_EPOCH": 6053,
        "BSTAR": 0.00010701,
        "MEAN_MOTION_DOT": 2.238e-05,
        "MEAN_MOTION_DDOT": 0
    },
    {
        "OBJECT_NAME": "SL-3 R/B",
        "OBJECT_ID": "1988-032B",
        "EPOCH": "2026-05-16T18:58:04.761696",
        "MEAN_MOTION": 15.20569672,
        "ECCENTRICITY": 0.0025554,
        "INCLINATION": 97.5244,
        "RA_OF_ASC_NODE": 119.8727,
        "ARG_OF_PERICENTER": 0.8775,
        "MEAN_ANOMALY": 359.25,
        "EPHEMERIS_TYPE": 0,
        "CLASSIFICATION_TYPE": "U",
        "NORAD_CAT_ID": 19046,
        "ELEMENT_SET_NO": 999,
        "REV_AT_EPOCH": 6245,
        "BSTAR": 0.00014679,
        "MEAN_MOTION_DOT": 3.169e-05,
        "MEAN_MOTION_DDOT": 0
    },
    {
        "OBJECT_NAME": "SL-16 R/B",
        "OBJECT_ID": "1988-039B",
        "EPOCH": "2026-05-16T16:40:22.688256",
        "MEAN_MOTION": 14.19626088,
        "ECCENTRICITY": 0.002371,
        "INCLINATION": 71.0145,
        "RA_OF_ASC_NODE": 284.7487,
        "ARG_OF_PERICENTER": 238.5777,
        "MEAN_ANOMALY": 121.3029,
        "EPHEMERIS_TYPE": 0,
        "CLASSIFICATION_TYPE": "U",
        "NORAD_CAT_ID": 19120,
        "ELEMENT_SET_NO": 999,
        "REV_AT_EPOCH": 96803,
        "BSTAR": -5.4293e-05,
        "MEAN_MOTION_DOT": -1.63e-06,
        "MEAN_MOTION_DDOT": 0
    },
    {
        "OBJECT_NAME": "COSMOS 1953",
        "OBJECT_ID": "1988-050A",
        "EPOCH": "2026-05-16T19:36:06.413760",
        "MEAN_MOTION": 15.29505459,
        "ECCENTRICITY": 0.0008891,
        "INCLINATION": 82.5069,
        "RA_OF_ASC_NODE": 89.6523,
        "ARG_OF_PERICENTER": 236.8537,
        "MEAN_ANOMALY": 123.1851,
        "EPHEMERIS_TYPE": 0,
        "CLASSIFICATION_TYPE": "U",
        "NORAD_CAT_ID": 19210,
        "ELEMENT_SET_NO": 999,
        "REV_AT_EPOCH": 4819,
        "BSTAR": 0.00020044,
        "MEAN_MOTION_DOT": 5.77e-05,
        "MEAN_MOTION_DDOT": 0
    },
    {
        "OBJECT_NAME": "SL-8 R/B",
        "OBJECT_ID": "1988-053B",
        "EPOCH": "2026-05-16T20:23:38.272128",
        "MEAN_MOTION": 14.38951294,
        "ECCENTRICITY": 0.0019777,
        "INCLINATION": 74.0478,
        "RA_OF_ASC_NODE": 346.826,
        "ARG_OF_PERICENTER": 152.9754,
        "MEAN_ANOMALY": 218.1144,
        "EPHEMERIS_TYPE": 0,
        "CLASSIFICATION_TYPE": "U",
        "NORAD_CAT_ID": 19257,
        "ELEMENT_SET_NO": 999,
        "REV_AT_EPOCH": 98640,
        "BSTAR": 6.3255e-05,
        "MEAN_MOTION_DOT": 1.69e-06,
        "MEAN_MOTION_DDOT": 0
    }
]