SL-14 R/B               
1 17567U 87024B   26136.70837605  .00000286  00000+0  29654-4 0  9996
2 17567  82.5302  28.8365 0019250  39.3903 320.8709 14.86190623 98235
COSMOS 1833             
1 17589U 87027A   26136.81898823  .00000065  00000+0  60120-4 0  9992
2 17589  70.9143 182.8078 0022386 107.1633 253.1942 14.13032279 19943
SL-16 R/B               
1 17590U 87027B   26136.73556801  .00000013  00000+0  30125-4 0  9997
2 17590  70.9992 133.1051 0004887 351.6079   8.4962 14.17170412 24982
SL-14 R/B               
1 17912U 87038B   26136.73819154  .00000248  00000+0  25933-4 0  9991
2 17912  82.5026 232.6918 0017875 302.0659  57.8821 14.85424332 89339
COSMOS 1844             
1 17973U 87041A   26136.71017831  .00000298  00000+0  17967-3 0  9994
2 17973  70.8991 250.6991 0032852 279.5490  80.1920 14.14561038 13200
SL-14 R/B               
1 18153U 87055B   26136.83796720  .00000272  00000+0  28432-4 0  9996
2 18153  82.4974 284.7830 0021521 144.8905 215.3734 14.85684674 80059
COSMOS 1867             
1 18187U 87060A   26136.69576740 -.00000077  00000+0  89043-5 0  9991
2 18187  65.0089 116.2509 0015856 281.6935  78.2370 14.31512071 29674
SL-14 R/B               
1 18749U 88001B   26136.43374995  .00000271  00000+0  28463-4 0  9994
2 18749  82.5110 131.6478 0018519  19.3914 340.8003 14.85583763 52082
COSMOS 1933             
1 18958U 88020A   26136.60713483  .00002238  00000+0  10701-3 0  9995
2 18958  82.5136 183.7027 0003172 347.7604  12.3552 15.18512316 60535
SL-3 R/B                
1 19046U 88032B   26136.79033289  .00003169  00000+0  14679-3 0  9998
2 19046  97.5244 119.8727 0025554   0.8775 359.2500 15.20569672 62450
SL-16 R/B               
1 19120U 88039B   26136.69470704 -.00000163  00000+0 -54293-4 0  9994
2 19120  71.0145 284.7487 0023710 238.5777 121.3029 14.19626088968034
COSMOS 1953             
1 19210U 88050A   26136.81674090  .00005770  00000+0  20044-3 0  9998
2 19210  82.5069  89.6523 0008891 236.8537 123.1851 15.29505459 48196
SL-8 R/B                
1 19257U 88053B   26136.84974852  .00000169  00000+0  63255-4 0  9993
2 19257  74.0478 346.8260 0019777 152.9754 218.1144 14.38951294986403
